NORAD_CAT_ID,OBJECT_NAME,OBJECT_TYPE,EPOCH,MEAN_MOTION,ECCENTRICITY,INCLINATION,RA_OF_ASC_NODE,ARG_OF_PERICENTER,MEAN_ANOMALY,BSTAR,MEAN_MOTION_DOT,MEAN_MOTION_DDOT,TLE_LINE0,TLE_LINE1,TLE_LINE2,SEMIMAJOR_AXIS,PERIOD,APOGEE,PERIGEE,DECAYED
50813.0,STARLINK-3349,PAYLOAD,2024-06-05 17:21:30,15.08859881,0.0001298,53.2143,160.9714,79.7832,280.3306,0.00022736,3.334e-05,0.0,0 STARLINK-3349,1 50813U 22001L   24157.72326682  .00003334  00000-0  22736-3 0  9993,2 50813  53.2143 160.9714 0001298  79.7832 280.3306 15.08859881133632,6917.82,95.436,540.583,538.787,0.0
50813.0,STARLINK-3349,PAYLOAD,2024-06-06 04:29:12,15.08844568,0.000144,53.2142,158.8888,80.6177,279.4978,-7.359e-05,-1.459e-05,0.0,0 STARLINK-3349,1 50813U 22001L   24158.18695044 -.00001459  00000-0 -73590-4 0  9998,2 50813  53.2142 158.8888 0001440  80.6177 279.4978 15.08844568134957,6917.866,95.437,540.728,538.735,0.0
50813.0,STARLINK-3349,PAYLOAD,2024-06-06 07:39:58,15.08845635,0.0001345,53.2147,158.2937,68.6212,291.4923,-3.5526e-05,-8.53e-06,0.0,0 STARLINK-3349,1 50813U 22001L   24158.31943168 -.00000853  00000-0 -35526-4 0  9990,2 50813  53.2147 158.2937 0001345  68.6212 291.4923 15.08845635133725,6917.863,95.437,540.659,538.798,0.0
50813.0,STARLINK-3349,PAYLOAD,2024-06-06 17:12:17,15.08846454,0.0001372,53.2154,156.5109,82.5935,277.5213,-4.6754e-06,-3.62e-06,0.0,0 STARLINK-3349,1 50813U 22001L   24158.71686971 -.00000362  00000-0 -46754-5 0  9991,2 50813  53.2154 156.5109 0001372  82.5935 277.5213 15.08846454133785,6917.861,95.437,540.675,538.777,0.0
50813.0,STARLINK-3349,PAYLOAD,2024-06-07 17:03:04,15.08853449,0.0001374,53.2155,152.0505,83.7546,276.3603,0.00012897,1.766e-05,0.0,0 STARLINK-3349,1 50813U 22001L   24159.71046313  .00001766  00000-0  12897-3 0  9998,2 50813  53.2155 152.0505 0001374  83.7546 276.3603 15.08853449135188,6917.839,95.437,540.655,538.754,0.0
50813.0,STARLINK-3349,PAYLOAD,2024-06-08 05:46:09,15.088434,0.000131,53.2151,149.6724,88.6243,271.4899,0.00018332,2.631e-05,0.0,0 STARLINK-3349,1 50813U 22001L   24160.24038817  .00002631  00000-0  18332-3 0  9990,2 50813  53.2151 149.6724 0001310  88.6243 271.4899 15.08843400135265,6917.87,95.437,540.641,538.829,0.0
50813.0,STARLINK-3349,PAYLOAD,2024-06-08 10:32:18,15.08847721,0.0001416,53.2161,148.7794,96.0755,264.0398,0.00021362,3.114e-05,0.0,0 STARLINK-3349,1 50813U 22001L   24160.43910556  .00003114  00000-0  21362-3 0  9994,2 50813  53.2161 148.7794 0001416  96.0755 264.0398 15.08847721134048,6917.857,95.437,540.701,538.742,0.0
50813.0,STARLINK-3349,PAYLOAD,2024-06-08 16:53:51,15.08843835,0.0001502,53.2162,147.5881,99.3952,260.721,0.00011773,1.586e-05,0.0,0 STARLINK-3349,1 50813U 22001L   24160.70406649  .00001586  00000-0  11773-3 0  9993,2 50813  53.2162 147.5881 0001502  99.3952 260.7210 15.08843835134086,6917.869,95.437,540.773,538.695,0.0
50813.0,STARLINK-3349,PAYLOAD,2024-06-09 05:36:56,15.08838701,0.0001365,53.2166,145.2112,92.2789,267.836,1.6146e-05,-3.1e-07,0.0,0 STARLINK-3349,1 50813U 22001L   24161.23399055 -.00000031  00000-0  16146-4 0  9999,2 50813  53.2166 145.2112 0001365  92.2789 267.8360 15.08838701135417,6917.884,95.438,540.694,538.805,0.0
50813.0,STARLINK-3349,PAYLOAD,2024-06-09 23:06:11,15.08838536,0.0001455,53.218,141.9404,94.1114,266.0045,4.5772e-05,4.41e-06,0.0,0 STARLINK-3349,1 50813U 22001L   24161.96263002  .00000441  00000-0  45772-4 0  9992,2 50813  53.2180 141.9404 0001455  94.1114 266.0045 15.08838536134273,6917.885,95.438,540.756,538.743,0.0
50813.0,STARLINK-3349,PAYLOAD,2024-06-10 05:27:44,15.08835181,0.0001456,53.2171,140.7509,93.1456,266.9703,1.7351e-05,-1.2e-07,0.0,0 STARLINK-3349,1 50813U 22001L   24162.22759279 -.00000012  00000-0  17351-4 0  9995,2 50813  53.2171 140.7509 0001456  93.1456 266.9703 15.08835181134313,6917.895,95.438,540.767,538.753,0.0
50813.0,STARLINK-3349,PAYLOAD,2024-06-10 21:21:35,15.08833848,0.0001345,53.2196,137.7771,92.176,267.9386,-1.0229e-05,-4.51e-06,0.0,0 STARLINK-3349,1 50813U 22001L   24162.88999491 -.00000451  00000-0 -10229-4 0  9994,2 50813  53.2196 137.7771 0001345  92.1760 267.9386 15.08833848135666,6917.899,95.438,540.695,538.834,0.0
50813.0,STARLINK-3349,PAYLOAD,2024-06-10 22:56:58,15.08836847,0.0001375,53.219,137.4823,88.4508,271.6641,2.2518e-06,-2.52e-06,0.0,0 STARLINK-3349,1 50813U 22001L   24162.95623307 -.00000252  00000-0  22518-5 0  9995,2 50813  53.2190 137.4823 0001375  88.4508 271.6641 15.08836847134427,6917.89,95.438,540.706,538.804,0.0
50813.0,STARLINK-3349,PAYLOAD,2024-06-11 05:18:31,15.08835488,0.0001465,53.2188,136.2927,94.5184,265.5975,6.0545e-05,6.76e-06,0.0,0 STARLINK-3349,1 50813U 22001L   24163.22119393  .00000676  00000-0  60545-4 0  9991,2 50813  53.2188 136.2927 0001465  94.5184 265.5975 15.08835488134460,6917.894,95.438,540.773,538.746,0.0
50813.0,STARLINK-3349,PAYLOAD,2024-06-12 05:09:18,15.0882816,0.0001504,53.2184,131.8329,100.2104,259.9058,9.7599e-05,1.265e-05,0.0,0 STARLINK-3349,1 50813U 22001L   24164.21480155  .00001265  00000-0  97599-4 0  9992,2 50813  53.2184 131.8329 0001504 100.2104 259.9058 15.08828160135867,6917.917,95.438,540.822,538.741,0.0
50813.0,STARLINK-3349,PAYLOAD,2024-06-13 06:35:28,15.08838003,0.0001358,53.2174,127.0739,100.0395,260.0751,6.9755e-05,8.22e-06,0.0,0 STARLINK-3349,1 50813U 22001L   24165.27463961  .00000822  00000-0  69755-4 0  9996,2 50813  53.2174 127.0739 0001358 100.0395 260.0751 15.08838003136024,6917.886,95.438,540.691,538.812,0.0
50813.0,STARLINK-3349,PAYLOAD,2024-06-13 14:32:24,15.0884313,0.0001244,53.2169,125.5849,83.093,277.0203,0.00010814,1.434e-05,0.0,0 STARLINK-3349,1 50813U 22001L   24165.60583518  .00001434  00000-0  10814-3 0  9995,2 50813  53.2169 125.5849 0001244  83.0930 277.0203 15.08843130134825,6917.871,95.437,540.596,538.875,0.0
50813.0,STARLINK-3349,PAYLOAD,2024-06-14 14:23:11,15.08845988,0.0001493,53.2183,121.1269,84.9045,275.2118,0.0001262,1.721e-05,0.0,0 STARLINK-3349,1 50813U 22001L   24166.59943449  .00001721  00000-0  12620-3 0  9993,2 50813  53.2183 121.1269 0001493  84.9045 275.2118 15.08845988134976,6917.862,95.437,540.76,538.694,0.0
50813.0,STARLINK-3349,PAYLOAD,2024-06-15 06:17:02,15.08843892,0.0001394,53.2177,118.1477,99.89,260.225,5.8788e-05,6.48e-06,0.0,0 STARLINK-3349,1 50813U 22001L   24167.26183595  .00000648  00000-0  58788-4 0  9999,2 50813  53.2177 118.1477 0001394  99.8900 260.2250 15.08843892135076,6917.868,95.437,540.698,538.769,0.0
50813.0,STARLINK-3349,PAYLOAD,2024-06-16 06:07:49,15.08845264,0.0001329,53.2173,113.6909,93.3049,266.8095,3.1618e-05,2.15e-06,0.0,0 STARLINK-3349,1 50813U 22001L   24168.25543411  .00000215  00000-0  31618-4 0  9999,2 50813  53.2173 113.6909 0001329  93.3049 266.8095 15.08845264135224,6917.864,95.437,540.649,538.81,0.0
50813.0,STARLINK-3349,PAYLOAD,2024-06-17 05:58:37,15.08817045,0.0001578,53.219,109.2292,103.0807,257.0361,0.00023596,3.467e-05,0.0,0 STARLINK-3349,1 50813U 22001L   24169.24904633  .00003467  00000-0  23596-3 0  9993,2 50813  53.2190 109.2292 0001578 103.0807 257.0361 15.08817045135376,6917.951,95.439,540.907,538.724,0.0
50813.0,STARLINK-3349,PAYLOAD,2024-06-18 02:38:37,15.08836107,0.0001472,53.219,105.3633,98.5252,261.5907,2.4279e-05,9.8e-07,0.0,0 STARLINK-3349,1 50813U 22001L   24170.11016154  .00000098  00000-0  24279-4 0  9990,2 50813  53.2190 105.3633 0001472  98.5252 261.5907 15.08836107136756,6917.892,95.438,540.776,538.739,0.0
50813.0,STARLINK-3349,PAYLOAD,2024-06-18 12:10:56,15.08845533,0.0001384,53.2186,103.5821,94.5234,265.5916,7.5405e-05,9.13e-06,0.0,0 STARLINK-3349,1 50813U 22001L   24170.50759388  .00000913  00000-0  75405-4 0  9999,2 50813  53.2186 103.5821 0001384  94.5234 265.5916 15.08845533136812,6917.863,95.437,540.686,538.771,0.0
50813.0,STARLINK-3349,PAYLOAD,2024-06-18 20:07:52,15.08835686,0.0001763,53.219,102.097,97.4846,262.6347,5.9902e-05,6.65e-06,0.0,0 STARLINK-3349,1 50813U 22001L   24170.83880250  .00000665  00000-0  59902-4 0  9996,2 50813  53.2190 102.0970 0001763  97.4846 262.6347 15.08835686136867,6917.894,95.438,540.978,538.539,0.0
50813.0,STARLINK-3349,PAYLOAD,2024-06-19 12:01:43,15.08842609,0.0001514,53.2192,99.1231,93.5899,266.5266,9.8055e-05,1.273e-05,0.0,0 STARLINK-3349,1 50813U 22001L   24171.50119787  .00001273  00000-0  98055-4 0  9999,2 50813  53.2192  99.1231 0001514  93.5899 266.5266 15.08842609135713,6917.872,95.437,540.785,538.69,0.0
50813.0,STARLINK-3349,PAYLOAD,2024-06-20 00:44:49,15.08833704,0.0001702,53.2201,96.7454,97.3117,262.8068,-8.7931e-06,-4.28e-06,0.0,0 STARLINK-3349,1 50813U 22001L   24172.03112897 -.00000428  00000-0 -87931-5 0  9998,2 50813  53.2201  96.7454 0001702  97.3117 262.8068 15.08833704137041,6917.9,95.438,540.942,538.587,0.0
50813.0,STARLINK-3349,PAYLOAD,2024-06-20 11:52:31,15.08839057,0.000176,53.2201,94.6655,94.9197,265.1996,3.8773e-05,3.29e-06,0.0,0 STARLINK-3349,1 50813U 22001L   24172.49480515  .00000329  00000-0  38773-4 0  9990,2 50813  53.2201  94.6655 0001760  94.9197 265.1996 15.08839057135867,6917.883,95.438,540.966,538.531,0.0
50813.0,STARLINK-3349,PAYLOAD,2024-06-20 18:14:03,15.08836485,0.0001901,53.2196,93.4754,93.4744,266.6465,5.0076e-06,-2.08e-06,0.0,0 STARLINK-3349,1 50813U 22001L   24172.75976805 -.00000208  00000-0  50076-5 0  9999,2 50813  53.2196  93.4754 0001901  93.4744 266.6465 15.08836485135900,6917.891,95.438,541.071,538.441,0.0
50813.0,STARLINK-3349,PAYLOAD,2024-06-21 03:46:23,15.08830487,0.0001742,53.2181,91.6871,88.1113,272.0079,-2.1233e-05,-6.26e-06,0.0,0 STARLINK-3349,1 50813U 22001L   24173.15721530 -.00000626  00000-0 -21233-4 0  9994,2 50813  53.2181  91.6871 0001742  88.1113 272.0079 15.08830487137212,6917.909,95.438,540.98,538.569,0.0
50813.0,STARLINK-3349,PAYLOAD,2024-06-21 22:51:00,15.08838437,0.0001697,53.2207,88.12,89.1476,270.971,8.5164e-05,1.068e-05,0.0,0 STARLINK-3349,1 50813U 22001L   24173.95208749  .00001068  00000-0  85164-4 0  9996,2 50813  53.2207  88.1200 0001697  89.1476 270.9710 15.08838437136086,6917.885,95.438,540.924,538.576,0.0
